{"type": "FeatureCollection", "features": [ {"type": "Feature", "properties": {"norad_id": 33980, "name": "COSMOS 2251 DEB", "group": "cosmos-2251-debris", "lat": 7.8025293683820784, "lon": 47.356338841218495, "alt_km": 718.969567065391, "timestamp": "2025-12-20T05:41:50.424510+00:00", "meta": {"OBJECT_NAME": "COSMOS 2251 DEB", "OBJECT_ID": "1993-036FP", "EPOCH": "2025-12-19T20:20:20.252832", "MEAN_MOTION": 14.58688992, "ECCENTRICITY": 0.00282632, "INCLINATION": 74.0211, "RA_OF_ASC_NODE": 45.849, "ARG_OF_PERICENTER": 189.793, "MEAN_ANOMALY": 291.6289, "EPHEMERIS_TYPE": 0, "CLASSIFICATION_TYPE": "U", "NORAD_CAT_ID": 33980, "ELEMENT_SET_NO": 999, "REV_AT_EPOCH": 88898, "BSTAR": 0.00039318577, "MEAN_MOTION_DOT": 1.814e-05, "MEAN_MOTION_DDOT": 0}, "tle": {"line1": "1 33980U 93036FP  25353.84745663  .00001814  00000+0  39319-3 0  9996", "line2": "2 33980  74.0211  45.8490 0028263 189.7930 291.6289 14.58688992888986"}}, "geometry": {"type": "Point", "coordinates": [47.356338841218495, 7.8025293683820784]}}, {"type": "Feature", "properties": {"norad_id": 33982, "name": "COSMOS 2251 DEB", "group": "cosmos-2251-debris", "lat": -72.99955694627764, "lon": -125.25176296772062, "alt_km": 728.8747097136502, "timestamp": "2025-12-20T05:41:50.424520+00:00", "meta": {"OBJECT_NAME": "COSMOS 2251 DEB", "OBJECT_ID": "1993-036FR", "EPOCH": "2025-12-19T17:47:40.815168", "MEAN_MOTION": 14.60238514, "ECCENTRICITY": 0.00752972, "INCLINATION": 74.0698, "RA_OF_ASC_NODE": 346.5962, "ARG_OF_PERICENTER": 29.1003, "MEAN_ANOMALY": 149.5787, "EPHEMERIS_TYPE": 0, "CLASSIFICATION_TYPE": "U", "NORAD_CAT_ID": 33982, "ELEMENT_SET_NO": 999, "REV_AT_EPOCH": 89261, "BSTAR": 0.00033290919, "MEAN_MOTION_DOT": 1.64e-05, "MEAN_MOTION_DDOT": 0}, "tle": {"line1": "1 33982U 93036FR  25353.74144462  .00001640  00000+0  33291-3 0  9997", "line2": "2 33982  74.0698 346.5962 0075297  29.1003 149.5787 14.60238514892612"}}, "geometry": {"type": "Point", "coordinates": [-125.25176296772062, -72.99955694627764]}}, {"type": "Feature", "properties": {"norad_id": 33983, "name": "COSMOS 2251 DEB", "group": "cosmos-2251-debris", "lat": -56.77010902113297, "lon": 107.07907766517029, "alt_km": 723.597110991539, "timestamp": "2025-12-20T05:41:50.424531+00:00", "meta": {"OBJECT_NAME": "COSMOS 2251 DEB", "OBJECT_ID": "1993-036FS", "EPOCH": "2025-12-19T20:35:25.603872", "MEAN_MOTION": 14.5069723, "ECCENTRICITY": 0.00212105, "INCLINATION": 74.0493, "RA_OF_ASC_NODE": 133.6761, "ARG_OF_PERICENTER": 235.8401, "MEAN_ANOMALY": 242.6481, "EPHEMERIS_TYPE": 0, "CLASSIFICATION_TYPE": "U", "NORAD_CAT_ID": 33983, "ELEMENT_SET_NO": 999, "REV_AT_EPOCH": 88732, "BSTAR": 0.00037408849, "MEAN_MOTION_DOT": 1.447e-05, "MEAN_MOTION_DDOT": 0}, "tle": {"line1": "1 33983U 93036FS  25353.85793523  .00001447  00000+0  37409-3 0  9998", "line2": "2 33983  74.0493 133.6761 0021210 235.8401 242.6481 14.50697230887323"}}, "geometry": {"type": "Point", "coordinates": [107.07907766517029, -56.77010902113297]}}, {"type": "Feature", "properties": {"norad_id": 33984, "name": "COSMOS 2251 DEB", "group": "cosmos-2251-debris", "lat": 65.56934137833122, "lon": 113.47942180664901, "alt_km": 657.7029319869071, "timestamp": "2025-12-20T05:41:50.424541+00:00", "meta": {"OBJECT_NAME": "COSMOS 2251 DEB", "OBJECT_ID": "1993-036FT", "EPOCH": "2025-12-18T23:59:04.772256", "MEAN_MOTION": 14.66414895, "ECCENTRICITY": 0.00227517, "INCLINATION": 74.0089, "RA_OF_ASC_NODE": 335.0135, "ARG_OF_PERICENTER": 171.3355, "MEAN_ANOMALY": 244.5762, "EPHEMERIS_TYPE": 0, "CLASSIFICATION_TYPE": "U", "NORAD_CAT_ID": 33984, "ELEMENT_SET_NO": 999, "REV_AT_EPOCH": 89158, "BSTAR": 0.00061279688, "MEAN_MOTION_DOT": 3.372e-05, "MEAN_MOTION_DDOT": 0}, "tle": {"line1": "1 33984U 93036FT  25352.99936079  .00003372  00000+0  61280-3 0  9991", "line2": "2 33984  74.0089 335.0135 0022751 171.3355 244.5762 14.66414895891588"}}, "geometry": {"type": "Point", "coordinates": [113.47942180664901, 65.56934137833122]}}, {"type": "Feature", "properties": {"norad_id": 33986, "name": "COSMOS 2251 DEB", "group": "cosmos-2251-debris", "lat": -29.684740632002296, "lon": 118.1371514804418, "alt_km": 778.2350015979891, "timestamp": "2025-12-20T05:41:50.424552+00:00", "meta": {"OBJECT_NAME": "COSMOS 2251 DEB", "OBJECT_ID": "1993-036FV", "EPOCH": "2025-12-18T21:25:07.387968", "MEAN_MOTION": 14.43233693, "ECCENTRICITY": 0.00407833, "INCLINATION": 74.0369, "RA_OF_ASC_NODE": 291.2436, "ARG_OF_PERICENTER": 2.5986, "MEAN_ANOMALY": 63.5229, "EPHEMERIS_TYPE": 0, "CLASSIFICATION_TYPE": "U", "NORAD_CAT_ID": 33986, "ELEMENT_SET_NO": 999, "REV_AT_EPOCH": 88117, "BSTAR": 0.00054447356, "MEAN_MOTION_DOT": 1.824e-05, "MEAN_MOTION_DDOT": 0}, "tle": {"line1": "1 33986U 93036FV  25352.89244662  .00001824  00000+0  54447-3 0  9999", "line2": "2 33986  74.0369 291.2436 0040783   2.5986  63.5229 14.43233693881179"}}, "geometry": {"type": "Point", "coordinates": [118.1371514804418, -29.684740632002296]}}, {"type": "Feature", "properties": {"norad_id": 33990, "name": "COSMOS 2251 DEB", "group": "cosmos-2251-debris", "lat": -73.50386784742231, "lon": 170.71910927791257, "alt_km": 805.4753666077695, "timestamp": "2025-12-20T05:41:50.424562+00:00", "meta": {"OBJECT_NAME": "COSMOS 2251 DEB", "OBJECT_ID": "1993-036FZ", "EPOCH": "2025-12-19T21:34:22.368864", "MEAN_MOTION": 13.50005688, "ECCENTRICITY": 0.04074261, "INCLINATION": 73.9284, "RA_OF_ASC_NODE": 274.5007, "ARG_OF_PERICENTER": 293.5234, "MEAN_ANOMALY": 130.1745, "EPHEMERIS_TYPE": 0, "CLASSIFICATION_TYPE": "U", "NORAD_CAT_ID": 33990, "ELEMENT_SET_NO": 999, "REV_AT_EPOCH": 82826, "BSTAR": 0.00064595152, "MEAN_MOTION_DOT": 6.64e-06, "MEAN_MOTION_DDOT": 0}, "tle": {"line1": "1 33990U 93036FZ  25353.89887001  .00000664  00000+0  64595-3 0  9991", "line2": "2 33990  73.9284 274.5007 0407426 293.5234 130.1745 13.50005688828268"}}, "geometry": {"type": "Point", "coordinates": [170.71910927791257, -73.50386784742231]}}, {"type": "Feature", "properties": {"norad_id": 33992, "name": "COSMOS 2251 DEB", "group": "cosmos-2251-debris", "lat": -31.95652435025406, "lon": -47.020980897348714, "alt_km": 692.329440660501, "timestamp": "2025-12-20T05:41:50.424573+00:00", "meta": {"OBJECT_NAME": "COSMOS 2251 DEB", "OBJECT_ID": "1993-036GB", "EPOCH": "2025-12-19T21:48:05.850720", "MEAN_MOTION": 14.66266493, "ECCENTRICITY": 0.00517284, "INCLINATION": 74.0238, "RA_OF_ASC_NODE": 323.9082, "ARG_OF_PERICENTER": 79.5597, "MEAN_ANOMALY": 311.8201, "EPHEMERIS_TYPE": 0, "CLASSIFICATION_TYPE": "U", "NORAD_CAT_ID": 33992, "ELEMENT_SET_NO": 999, "REV_AT_EPOCH": 89230, "BSTAR": 0.00051548441, "MEAN_MOTION_DOT": 2.868e-05, "MEAN_MOTION_DDOT": 0}, "tle": {"line1": "1 33992U 93036GB  25353.90840105  .00002868  00000+0  51548-3 0  9991", "line2": "2 33992  74.0238 323.9082 0051728  79.5597 311.8201 14.66266493892309"}}, "geometry": {"type": "Point", "coordinates": [-47.020980897348714, -31.95652435025406]}}, {"type": "Feature", "properties": {"norad_id": 33994, "name": "COSMOS 2251 DEB", "group": "cosmos-2251-debris", "lat": -68.34700880186617, "lon": 130.41674556483107, "alt_km": 745.9263805863648, "timestamp": "2025-12-20T05:41:50.424583+00:00", "meta": {"OBJECT_NAME": "COSMOS 2251 DEB", "OBJECT_ID": "1993-036GD", "EPOCH": "2025-12-19T20:34:56.271072", "MEAN_MOTION": 14.41218692, "ECCENTRICITY": 0.00238408, "INCLINATION": 74.0416, "RA_OF_ASC_NODE": 177.2377, "ARG_OF_PERICENTER": 310.3411, "MEAN_ANOMALY": 164.9055, "EPHEMERIS_TYPE": 0, "CLASSIFICATION_TYPE": "U", "NORAD_CAT_ID": 33994, "ELEMENT_SET_NO": 999, "REV_AT_EPOCH": 88522, "BSTAR": 6.6437977e-05, "MEAN_MOTION_DOT": 1.88e-06, "MEAN_MOTION_DDOT": 0}, "tle": {"line1": "1 33994U 93036GD  25353.85759573  .00000188  00000+0  66438-4 0  9993", "line2": "2 33994  74.0416 177.2377 0023840 310.3411 164.9055 14.41218692885229"}}, "geometry": {"type": "Point", "coordinates": [130.41674556483107, -68.34700880186617]}}, {"type": "Feature", "properties": {"norad_id": 33995, "name": "COSMOS 2251 DEB", "group": "cosmos-2251-debris", "lat": -8.142243591768933, "lon": -72.02118439731758, "alt_km": 764.758418644331, "timestamp": "2025-12-20T05:41:50.424593+00:00", "meta": {"OBJECT_NAME": "COSMOS 2251 DEB", "OBJECT_ID": "1993-036GE", "EPOCH": "2025-12-19T13:46:03.913824", "MEAN_MOTION": 14.3480458, "ECCENTRICITY": 0.0059643, "INCLINATION": 74.0617, "RA_OF_ASC_NODE": 106.8494, "ARG_OF_PERICENTER": 119.3604, "MEAN_ANOMALY": 241.3523, "EPHEMERIS_TYPE": 0, "CLASSIFICATION_TYPE": "U", "NORAD_CAT_ID": 33995, "ELEMENT_SET_NO": 999, "REV_AT_EPOCH": 87617, "BSTAR": 0.00059432, "MEAN_MOTION_DOT": 1.695e-05, "MEAN_MOTION_DDOT": 0}, "tle": {"line1": "1 33995U 93036GE  25353.57365641  .00001695  00000+0  59432-3 0  9991", "line2": "2 33995  74.0617 106.8494 0059643 119.3604 241.3523 14.34804580876175"}}, "geometry": {"type": "Point", "coordinates": [-72.02118439731758, -8.142243591768933]}}, {"type": "Feature", "properties": {"norad_id": 33999, "name": "COSMOS 2251 DEB", "group": "cosmos-2251-debris", "lat": -36.44878378924444, "lon": 48.125641007816114, "alt_km": 634.202228521548, "timestamp": "2025-12-20T05:41:50.424603+00:00", "meta": {"OBJECT_NAME": "COSMOS 2251 DEB", "OBJECT_ID": "1993-036GJ", "EPOCH": "2025-12-19T01:12:27.249696", "MEAN_MOTION": 14.83485098, "ECCENTRICITY": 0.00444173, "INCLINATION": 73.9181, "RA_OF_ASC_NODE": 218.1903, "ARG_OF_PERICENTER": 111.8803, "MEAN_ANOMALY": 248.7107, "EPHEMERIS_TYPE": 0, "CLASSIFICATION_TYPE": "U", "NORAD_CAT_ID": 33999, "ELEMENT_SET_NO": 999, "REV_AT_EPOCH": 89344, "BSTAR": 0.00093991228, "MEAN_MOTION_DOT": 7.837e-05, "MEAN_MOTION_DDOT": 0}, "tle": {"line1": "1 33999U 93036GJ  25353.05031539  .00007837  00000+0  93991-3 0  9996", "line2": "2 33999  73.9181 218.1903 0044417 111.8803 248.7107 14.83485098893447"}}, "geometry": {"type": "Point", "coordinates": [48.125641007816114, -36.44878378924444]}}]}